POLAR                   
1 23802U 96013A   17345.11837865 -.00000288  00000-0  00000+0 0  9991
2 23802  78.5244 265.8820 7245281 315.6319   5.2978  1.29843110104459
